NORAD_CAT_ID,OBJECT_NAME,OBJECT_TYPE,EPOCH,MEAN_MOTION,ECCENTRICITY,INCLINATION,RA_OF_ASC_NODE,ARG_OF_PERICENTER,MEAN_ANOMALY,BSTAR,MEAN_MOTION_DOT,MEAN_MOTION_DDOT,TLE_LINE0,TLE_LINE1,TLE_LINE2,SEMIMAJOR_AXIS,PERIOD,APOGEE,PERIGEE,DECAYED
52346.0,STARLINK-3812,PAYLOAD,2023-04-04 00:04:02,15.08852295,0.0001024,53.2159,325.6236,84.9297,275.1812,0.00047831,7.335e-05,0.0,0 STARLINK-3812,1 52346U 22045R   23094.00280702  .00007335  00000-0  47831-3 0  9994,2 52346  53.2159 325.6236 0001024  84.9297 275.1812 15.08852295 54145,6917.843,95.437,540.416,538.999,0.0
52346.0,STARLINK-3812,PAYLOAD,2023-04-04 20:44:03,15.08835757,0.0001238,53.2166,321.7596,87.0432,273.0702,0.00058306,9.003e-05,0.0,0 STARLINK-3812,1 52346U 22045R   23094.86393310  .00009003  00000-0  58306-3 0  9991,2 52346  53.2166 321.7596 0001238  87.0432 273.0702 15.08835757 54274,6917.893,95.438,540.615,538.902,0.0
52346.0,STARLINK-3812,PAYLOAD,2023-04-05 01:30:13,15.08837902,0.0001093,53.2167,320.8673,86.333,273.7787,0.00021325,3.107e-05,0.0,0 STARLINK-3812,1 52346U 22045R   23095.06265293  .00003107  00000-0  21325-3 0  9992,2 52346  53.2167 320.8673 0001093  86.3330 273.7787 15.08837902 54307,6917.887,95.438,540.508,538.996,0.0
52346.0,STARLINK-3812,PAYLOAD,2023-04-05 20:34:51,15.08828053,0.0001013,53.2152,317.2971,80.888,279.2227,-3.2307e-05,-8.02e-06,0.0,0 STARLINK-3812,1 52346U 22045R   23095.85754219 -.00000802  00000-0 -32307-4 0  9994,2 52346  53.2152 317.2971 0001013  80.8880 279.2227 15.08828053 54423,6917.917,95.438,540.483,539.081,0.0
52346.0,STARLINK-3812,PAYLOAD,2023-04-05 22:10:14,15.08830051,0.000101,53.2153,316.9996,79.252,280.8586,1.3233e-05,-7.7e-07,0.0,0 STARLINK-3812,1 52346U 22045R   23095.92378188 -.00000077  00000-0  13233-4 0  9999,2 52346  53.2153 316.9996 0001010  79.2520 280.8586 15.08830051 54435,6917.911,95.438,540.475,539.077,0.0
52346.0,STARLINK-3812,PAYLOAD,2023-04-05 23:45:37,15.08835745,8.8e-05,53.2161,316.7006,78.0152,282.0939,6.021e-05,6.71e-06,0.0,0 STARLINK-3812,1 52346U 22045R   23095.99001987  .00000671  00000-0  60210-4 0  9992,2 52346  53.2161 316.7006 0000880  78.0152 282.0939 15.08835745 54448,6917.893,95.438,540.367,539.15,0.0
52346.0,STARLINK-3812,PAYLOAD,2023-04-06 17:14:51,15.08844939,9.2e-05,53.2161,313.4289,116.2622,243.8465,0.00028376,4.232e-05,0.0,0 STARLINK-3812,1 52346U 22045R   23096.71865627  .00004232  00000-0  28376-3 0  9995,2 52346  53.2161 313.4289 0000920 116.2622 243.8465 15.08844939 54553,6917.865,95.437,540.367,539.094,0.0
52346.0,STARLINK-3812,PAYLOAD,2023-04-07 01:11:48,15.08831099,0.0001234,53.2151,311.9455,88.8552,271.2581,0.0014845,0.00023411,0.0,0 STARLINK-3812,1 52346U 22045R   23097.04986942  .00023411  00000-0  14845-2 0  9991,2 52346  53.2151 311.9455 0001234  88.8552 271.2581 15.08831099 54608,6917.908,95.438,540.626,538.919,0.0
52346.0,STARLINK-3812,PAYLOAD,2023-04-07 13:54:52,15.08850737,0.0002209,53.2126,309.5763,48.5032,311.615,0.00032628,4.91e-05,0.0,0 STARLINK-3812,1 52346U 22045R   23097.57977641  .00004910  00000-0  32628-3 0  9998,2 52346  53.2126 309.5763 0002209  48.5032 311.6150 15.08850737 54683,6917.848,95.437,541.241,538.184,0.0
52346.0,STARLINK-3812,PAYLOAD,2023-04-08 01:02:34,15.08852807,0.0001016,53.2147,307.4846,87.1956,272.9153,0.00020952,3.049e-05,0.0,0 STARLINK-3812,1 52346U 22045R   23098.04345020  .00003049  00000-0  20952-3 0  9990,2 52346  53.2147 307.4846 0001016  87.1956 272.9153 15.08852807 54754,6917.841,95.437,540.409,539.003,0.0
52346.0,STARLINK-3812,PAYLOAD,2023-04-08 20:07:11,15.08843719,0.0001001,53.2153,303.9155,86.6682,273.4424,-6.0732e-06,-3.84e-06,0.0,0 STARLINK-3812,1 52346U 22045R   23098.83833263 -.00000384  00000-0 -60732-5 0  9991,2 52346  53.2153 303.9155 0001001  86.6682 273.4424 15.08843719 54871,6917.869,95.437,540.427,539.042,0.0
52346.0,STARLINK-3812,PAYLOAD,2023-04-09 13:36:26,15.08840109,0.000112,53.2149,300.6439,90.3755,269.7365,0.00019206,2.77e-05,0.0,0 STARLINK-3812,1 52346U 22045R   23099.56697716  .00002770  00000-0  19206-3 0  9990,2 52346  53.2149 300.6439 0001120  90.3755 269.7365 15.08840109 54984,6917.88,95.438,540.52,538.97,0.0
52346.0,STARLINK-3812,PAYLOAD,2023-04-09 18:22:36,15.08843413,0.0001064,53.215,299.7516,89.1588,270.9526,0.0002011,2.914e-05,0.0,0 STARLINK-3812,1 52346U 22045R   23099.76569628  .00002914  00000-0  20110-3 0  9998,2 52346  53.2150 299.7516 0001064  89.1588 270.9526 15.08843413 55016,6917.87,95.437,540.471,538.999,0.0
52346.0,STARLINK-3812,PAYLOAD,2023-04-10 00:44:08,15.08850102,0.0001097,53.2151,298.5615,92.0158,268.096,0.00033211,5.003e-05,0.0,0 STARLINK-3812,1 52346U 22045R   23100.03065362  .00005003  00000-0  33211-3 0  9995,2 52346  53.2151 298.5615 0001097  92.0158 268.0960 15.08850102 55053,6917.85,95.437,540.473,538.956,0.0
52346.0,STARLINK-3812,PAYLOAD,2023-04-10 19:48:46,15.08847874,0.0001412,53.2147,294.9935,94.0986,266.0168,0.00024188,3.564e-05,0.0,0 STARLINK-3812,1 52346U 22045R   23100.82553454  .00003564  00000-0  24188-3 0  9999,2 52346  53.2147 294.9935 0001412  94.0986 266.0168 15.08847874 55178,6917.856,95.437,540.698,538.745,0.0
52346.0,STARLINK-3812,PAYLOAD,2023-04-11 13:18:00,15.08837601,0.0001427,53.215,291.7235,93.9792,266.1364,-1.5271e-05,-5.31e-06,0.0,0 STARLINK-3812,1 52346U 22045R   23101.55417811 -.00000531  00000-0 -15271-4 0  9993,2 52346  53.2150 291.7235 0001427  93.9792 266.1364 15.08837601 55287,6917.888,95.438,540.74,538.766,0.0
52346.0,STARLINK-3812,PAYLOAD,2023-04-11 14:53:24,15.08833188,0.0001335,53.2138,291.4259,99.9492,260.1651,-1.3306e-05,-5e-06,0.0,0 STARLINK-3812,1 52346U 22045R   23101.62042080 -.00000500  00000-0 -13306-4 0  9996,2 52346  53.2138 291.4259 0001335  99.9492 260.1651 15.08833188 55297,6917.901,95.438,540.69,538.843,0.0
52346.0,STARLINK-3812,PAYLOAD,2023-04-12 13:08:48,15.08837328,0.000129,53.2139,287.2623,97.5331,262.5808,6.347e-05,7.22e-06,0.0,0 STARLINK-3812,1 52346U 22045R   23102.54777991  .00000722  00000-0  63470-4 0  9995,2 52346  53.2139 287.2623 0001290  97.5331 262.5808 15.08837328 55438,6917.889,95.438,540.646,538.861,0.0
52346.0,STARLINK-3812,PAYLOAD,2023-04-12 19:30:20,15.08843871,0.0001185,53.2143,286.0734,100.4126,259.7,9.2625e-05,1.187e-05,0.0,0 STARLINK-3812,1 52346U 22045R   23102.81273620  .00001187  00000-0  92625-4 0  9995,2 52346  53.2143 286.0734 0001185 100.4126 259.7000 15.08843871 55478,6917.869,95.437,540.553,538.914,0.0
52346.0,STARLINK-3812,PAYLOAD,2023-04-13 05:02:39,15.08835299,0.0001782,53.2138,284.2887,85.3673,274.7522,2.3848e-05,9.1e-07,0.0,0 STARLINK-3812,1 52346U 22045R   23103.21018225  .00000091  00000-0  23848-4 0  9992,2 52346  53.2138 284.2887 0001782  85.3673 274.7522 15.08835299 55530,6917.895,95.438,540.993,538.527,0.0
52346.0,STARLINK-3812,PAYLOAD,2023-04-14 11:14:59,15.08839944,0.0001281,53.2149,278.6391,85.7729,274.3409,0.00010164,1.33e-05,0.0,0 STARLINK-3812,1 52346U 22045R   23104.46874142  .00001330  00000-0  10164-3 0  9991,2 52346  53.2149 278.6391 0001281  85.7729 274.3409 15.08839944 55721,6917.881,95.438,540.632,538.859,0.0
52346.0,STARLINK-3812,PAYLOAD,2023-04-14 17:36:31,15.08848264,0.0001731,53.2152,277.4514,84.9402,275.1787,9.2929e-05,1.192e-05,0.0,0 STARLINK-3812,1 52346U 22045R   23104.73369791  .00001192  00000-0  92929-4 0  9996,2 52346  53.2152 277.4514 0001731  84.9402 275.1787 15.08848264 55765,6917.855,95.437,540.918,538.523,0.0
52346.0,STARLINK-3812,PAYLOAD,2023-04-14 20:47:17,15.08845628,0.000122,53.2159,276.8564,72.8391,287.2734,0.00023142,3.398e-05,0.0,0 STARLINK-3812,1 52346U 22045R   23104.86617959  .00003398  00000-0  23142-3 0  9992,2 52346  53.2159 276.8564 0001220  72.8391 287.2734 15.08845628 55785,6917.863,95.437,540.572,538.884,0.0
52346.0,STARLINK-3812,PAYLOAD,2023-04-15 20:38:04,15.08852701,0.0001394,53.2154,272.3959,86.7009,273.4143,0.0003064,4.593e-05,0.0,0 STARLINK-3812,1 52346U 22045R   23105.85977598  .00004593  00000-0  30640-3 0  9999,2 52346  53.2154 272.3959 0001394  86.7009 273.4143 15.08852701 55939,6917.842,95.437,540.671,538.742,0.0
52346.0,STARLINK-3812,PAYLOAD,2023-04-16 04:35:01,15.08836648,0.0001773,53.2155,270.9103,69.0708,291.0473,4.4882e-05,4.26e-06,0.0,0 STARLINK-3812,1 52346U 22045R   23106.19098457  .00000426  00000-0  44882-4 0  9990,2 52346  53.2155 270.9103 0001773  69.0708 291.0473 15.08836648 55985,6917.891,95.438,540.982,538.529,0.0
52346.0,STARLINK-3812,PAYLOAD,2023-04-16 14:07:19,15.08836202,0.0001474,53.2151,269.1253,72.2428,287.8725,4.0374e-05,3.55e-06,0.0,0 STARLINK-3812,1 52346U 22045R   23106.58842498  .00000355  00000-0  40374-4 0  9998,2 52346  53.2151 269.1253 0001474  72.2428 287.8725 15.08836202 56047,6917.892,95.438,540.777,538.737,0.0
52346.0,STARLINK-3812,PAYLOAD,2023-04-16 20:28:52,15.08844381,0.0001328,53.2149,267.9333,78.2673,281.8468,0.00017457,2.492e-05,0.0,0 STARLINK-3812,1 52346U 22045R   23106.85338121  .00002492  00000-0  17457-3 0  9990,2 52346  53.2149 267.9333 0001328  78.2673 281.8468 15.08844381 56084,6917.867,95.437,540.651,538.813,0.0
52346.0,STARLINK-3812,PAYLOAD,2023-04-17 13:58:06,15.08839057,0.000118,53.2154,264.6616,77.179,282.9334,5.2362e-05,5.46e-06,0.0,0 STARLINK-3812,1 52346U 22045R   23107.58202426  .00000546  00000-0  52362-4 0  9992,2 52346  53.2154 264.6616 0001180  77.1790 282.9334 15.08839057 56192,6917.883,95.438,540.565,538.932,0.0
52346.0,STARLINK-3812,PAYLOAD,2023-04-17 20:19:38,15.08855346,0.000112,53.2149,263.4735,70.2166,289.8947,0.00023891,3.518e-05,0.0,0 STARLINK-3812,1 52346U 22045R   23107.84697628  .00003518  00000-0  23891-3 0  9999,2 52346  53.2149 263.4735 0001120  70.2166 289.8947 15.08855346 56230,6917.833,95.437,540.473,538.924,0.0
52346.0,STARLINK-3812,PAYLOAD,2023-04-18 10:38:07,15.08835799,0.0001049,53.2157,260.7965,78.96,281.151,5.986e-05,6.65e-06,0.0,0 STARLINK-3812,1 52346U 22045R   23108.44314585  .00000665  00000-0  59860-4 0  9990,2 52346  53.2157 260.7965 0001049  78.9600 281.1510 15.08835799 56323,6917.893,95.438,540.484,539.033,0.0
